*******************************************************************************
 Revised: April 12, 2021                 Earth                              399
 
 GEOPHYSICAL PROPERTIES (revised May 9, 2022):
  Vol. Mean Radius (km)    = 6371.01+-0.02   Mass x10^24 (kg)= 5.97219+-0.0006
  Equ. radius, km          = 6378.137        Mass layers:
  Polar axis, km           = 6356.752          Atmos         = 5.1   x 10^18 kg
  Flattening               = 1/298.257223563   oceans        = 1.4   x 10^21 kg
  Density, g/cm^3          = 5.51              crust         = 2.6   x 10^22 kg
  J2 (IERS 2010)           = 0.00108262545     mantle        = 4.043 x 10^24 kg
  g_p, m/s^2  (polar)      = 9.8321863685      outer core    = 1.835 x 10^24 kg
  g_e, m/s^2  (equatorial) = 9.7803267715      inner core    = 9.675 x 10^22 kg
  g_o, m/s^2               = 9.82022         Fluid core rad  = 3480 km
  GM, km^3/s^2             = 398600.435436   Inner core rad  = 1215 km
  GM 1-sigma, km^3/s^2     =      0.0014     Escape velocity = 11.186 km/s
  Rot. Rate (rad/s)        = 0.00007292115   Surface area:
  Mean sidereal day, hr    = 23.9344695944     land          = 1.48 x 10^8 km
  Mean solar day 2000.0, s = 86400.002         sea           = 3.62 x 10^8 km
  Mean solar day 1820.0, s = 86400.0         Love no., k2    = 0.299
  Moment of inertia        = 0.3308          Atm. pressure   = 1.0 bar
  Mean surface temp (Ts), K= 287.6           Volume, km^3    = 1.08321 x 10^12
  Mean effect. temp (Te), K= 255             Magnetic moment = 0.61 gauss Rp^3
  Geometric albedo         = 0.367           Vis. mag. V(1,0)= -3.86
  Solar Constant (W/m^2)   = 1367.6 (mean), 1414 (perihelion), 1322 (aphelion)
 HELIOCENTRIC ORBIT CHARACTERISTICS:
  Obliquity to orbit, deg  = 23.4392911  Sidereal orb period  = 1.0000174 y
  Orbital speed, km/s      = 29.79       Sidereal orb period  = 365.25636 d
  Mean daily motion, deg/d = 0.9856474   Hill's sphere radius = 234.9       
*******************************************************************************


*******************************************************************************
Ephemeris / WWW_USER Wed Apr 29 10:43:00 2026 Pasadena, USA      / Horizons
*******************************************************************************
Target body name: Earth (399)                     {source: DE441}
Center body name: Sun (10)                        {source: DE441}
Center-site name: BODY CENTER
*******************************************************************************
Start time      : A.D. 2000-Jan-01 00:00:00.0000 TDB
Stop  time      : A.D. 2026-Mar-25 00:00:00.0000 TDB
Step-size       : 1440 minutes
*******************************************************************************
Center geodetic : 0.0, 0.0, 0.0                   {E-lon(deg),Lat(deg),Alt(km)}
Center cylindric: 0.0, 0.0, 0.0                   {E-lon(deg),Dxy(km),Dz(km)}
Center radii    : 695700.0, 695700.0, 695700.0 km {Equator_a, b, pole_c}
Output units    : KM-S
Calendar mode   : Mixed Julian/Gregorian
Output type     : GEOMETRIC cartesian states
Output format   : 2 (position and velocity)
Reference frame : Ecliptic of J2000.0
*******************************************************************************
            JDTDB,            Calendar Date (TDB),                      X,                      Y,                      Z,                     VX,                     VY,                     VZ,
**************************************************************************************************************************************************************************************************
$$SOE
2459160.500000000, A.D. 2020-Nov-07 00:00:00.0000,  1.052841613173336E+08,  1.043725519230565E+08, -5.442103671215475E+03, -2.144735863820203E+01,  2.104828137631499E+01, -1.789247179971198E-03,
2459161.500000000, A.D. 2020-Nov-08 00:00:00.0000,  1.034151332015297E+08,  1.061752654374086E+08, -5.588756178915501E+03, -2.181622439324472E+01,  2.068004953685337E+01, -1.597492714433102E-03,
2459162.500000000, A.D. 2020-Nov-09 00:00:00.0000,  1.015144854122887E+08,  1.079458655060851E+08, -5.716852384373546E+03, -2.217926715662390E+01,  2.030490865124303E+01, -1.360778139651408E-03,
2459163.500000000, A.D. 2020-Nov-10 00:00:00.0000,  9.958272893168277E+07,  1.096837536325740E+08, -5.822837304219604E+03, -2.253629824601049E+01,  1.992282283304769E+01, -1.087346283041413E-03,
2459164.500000000, A.D. 2020-Nov-11 00:00:00.0000,  9.762039283071867E+07,  1.113883284207038E+08, -5.904036694690585E+03, -2.288708615435843E+01,  1.953376312140822E+01, -7.894390009113295E-04,
2459165.500000000, A.D. 2020-Nov-12 00:00:00.0000,  9.562802828624560E+07,  1.130589868816495E+08, -5.959020191535354E+03, -2.323135015344472E+01,  1.913772525035067E+01, -4.835984447071340E-04,
2459166.500000000, A.D. 2020-Nov-13 00:00:00.0000,  9.360621281013459E+07,  1.146951276029325E+08, -5.987954456903040E+03, -2.356876291317565E+01,  1.873475448110407E+01, -1.900395243623620E-04,
2459167.500000000, A.D. 2020-Nov-14 00:00:00.0000,  9.155555363330157E+07,  1.162961561745582E+08, -5.992844279795885E+03, -2.389896821691289E+01,  1.832497151659266E+01,  6.936229909459968E-05,
2459168.500000000, A.D. 2020-Nov-15 00:00:00.0000,  8.947668883862329E+07,  1.178614925092007E+08, -5.977539994306862E+03, -2.422161481657000E+01,  1.790858833329651E+01,  2.743863060645779E-04,
2459169.500000000, A.D. 2020-Nov-16 00:00:00.0000,  8.737028513700177E+07,  1.193905786774160E+08, -5.947432768017054E+03, -2.453639807529445E+01,  1.748590291146741E+01,  4.101552577626677E-04,
2459170.500000000, A.D. 2020-Nov-17 00:00:00.0000,  8.523703226795596E+07,  1.208828852463745E+08, -5.908867682784796E+03, -2.484309365990424E+01,  1.705727056198328E+01,  4.697366516186463E-04,
2459171.500000000, A.D. 2020-Nov-18 00:00:00.0000,  8.307763535392375E+07,  1.223379144632198E+08, -5.868421003676951E+03, -2.514156973635015E+01,  1.662306213121983E+01,  4.545917010316813E-04,
2459172.500000000, A.D. 2020-Nov-19 00:00:00.0000,  8.089280725464456E+07,  1.237551998621420E+08, -5.832233515687287E+03, -2.543177553611773E+01,  1.618362570165346E+01,  3.729397971063975E-04,
2459173.500000000, A.D. 2020-Nov-20 00:00:00.0000,  7.868326262138851E+07,  1.251343031812734E+08, -5.805539940416813E+03, -2.571371555920540E+01,  1.573926380503588E+01,  2.370653860266358E-04,
2459174.500000000, A.D. 2020-Nov-21 00:00:00.0000,  7.644971433747123E+07,  1.264748100839142E+08, -5.792433210693300E+03, -2.598742204454511E+01,  1.529022806091224E+01,  6.074013678425416E-05,
2459175.500000000, A.D. 2020-Nov-22 00:00:00.0000,  7.419287208354951E+07,  1.277763259844062E+08, -5.795819654479623E+03, -2.625293419616386E+01,  1.483672573953500E+01, -1.425578215865642E-04,
2459176.500000000, A.D. 2020-Nov-23 00:00:00.0000,  7.191344230139357E+07,  1.290384726924626E+08, -5.817488277256489E+03, -2.651028655817550E+01,  1.437893104859939E+01, -3.605238813362277E-04,
2459177.500000000, A.D. 2020-Nov-24 00:00:00.0000,  6.961212881735674E+07,  1.302608860387844E+08, -5.858224831230938E+03, -2.675950492072739E+01,  1.391699593201995E+01, -5.822341196743963E-04,
2459178.500000000, A.D. 2020-Nov-25 00:00:00.0000,  6.728963359944820E+07,  1.314432143149962E+08, -5.917925763979554E+03, -2.700060682838652E+01,  1.345105790431538E+01, -7.979833333111586E-04,
2459179.500000000, A.D. 2020-Nov-26 00:00:00.0000,  6.494665736946160E+07,  1.325851172393370E+08, -5.995691436342895E+03, -2.723360404841733E+01,  1.298124441115655E+01, -9.990009900535668E-04,
2459180.500000000, A.D. 2020-Nov-27 00:00:00.0000,  6.258389998698726E+07,  1.336862651652417E+08, -6.089895587280393E+03, -2.745850513949646E+01,  1.250767422149270E+01, -1.177205427860706E-03,
2459181.500000000, A.D. 2020-Nov-28 00:00:00.0000,  6.020206064984169E+07,  1.347463383137852E+08, -6.198238577552140E+03, -2.767531699746231E+01,  1.203045675163128E+01, -1.325083813673800E-03,
2459182.500000000, A.D. 2020-Nov-29 00:00:00.0000,  5.780183802687205E+07,  1.357650258943475E+08, -6.317797092907131E+03, -2.788404482211457E+01,  1.154969032016333E+01, -1.435732361096065E-03,
2459183.500000000, A.D. 2020-Nov-30 00:00:00.0000,  5.538393046722230E+07,  1.367420250633007E+08, -6.445084171965718E+03, -2.808469039533167E+01,  1.106546029533069E+01, -1.503051305570935E-03,
2459184.500000000, A.D. 2020-Dec-01 00:00:00.0000,  5.294903642299721E+07,  1.376770397482054E+08, -6.576131518416107E+03, -2.827724893447395E+01,  1.057783795232931E+01, -1.522057362878027E-03,
2459185.500000000, A.D. 2020-Dec-02 00:00:00.0000,  5.049785518633942E+07,  1.385697794250061E+08, -6.706601810723543E+03, -2.846170506840259E+01,  1.008688059122955E+01, -1.489254825849162E-03,
2459186.500000000, A.D. 2020-Dec-03 00:00:00.0000,  4.803108798800619E+07,  1.394199579679102E+08, -6.831933280490339E+03, -2.863802860279701E+01,  9.592633099603567E+00, -1.403001464871156E-03,
2459187.500000000, A.D. 2020-Dec-04 00:00:00.0000,  4.554943944994753E+07,  1.402272926913136E+08, -6.947513850830495E+03, -2.880617063159601E+01,  9.095130781723883E+00, -1.263821253592923E-03,
2459188.500000000, A.D. 2020-Dec-05 00:00:00.0000,  4.305361934887538E+07,  1.409915036774225E+08, -7.048879297330976E+03, -2.896606023337845E+01,  8.594403078023358E+00, -1.074648135070966E-03,
2459189.500000000, A.D. 2020-Dec-06 00:00:00.0000,  4.054434464398775E+07,  1.417123134527361E+08, -7.131930027611554E+03, -2.911760160982839E+01,  8.090477902634031E+00, -8.410181057003641E-04,
2459190.500000000, A.D. 2020-Dec-07 00:00:00.0000,  3.802234174549737E+07,  1.423894470694553E+08, -7.193163313940167E+03, -2.926067131672717E+01,  7.583386753508417E+00, -5.712387278133946E-04,
2459191.500000000, A.D. 2020-Dec-08 00:00:00.0000,  3.548834902517521E+07,  1.430226326868217E+08, -7.229919394679368E+03, -2.939511545734777E+01,  7.073171348093785E+00, -2.765353397111703E-04,
